{
  "norad_id": 53390,
  "name": "STARLINK-4517",
  "history": [
    {
      "epoch": "2026-03-28T14:21:21.823200Z",
      "apogee_km": 540.7706581279899,
      "perigee_km": 538.7340315048759,
      "latitude_deg": 1.7682682583057813e-05,
      "longitude_deg": -2.1218351777401323,
      "height_km": 540.6291176453491,
      "semi_major_axis_km": 6917.889344816433,
      "eccentricity": 0.0001472,
      "inclination_deg": 53.2178,
      "raan_deg": 39.2354,
      "arg_perigee_deg": 88.9412,
      "mean_anomaly_deg": 271.1749,
      "mean_motion_rev_day": 15.0883707
    },
    {
      "epoch": "2026-03-29T03:04:27.667200Z",
      "apogee_km": 540.8265545830882,
      "perigee_km": 538.722125953379,
      "latitude_deg": -3.2084795071863286e-05,
      "longitude_deg": 164.20535611915236,
      "height_km": 540.475726949544,
      "semi_major_axis_km": 6917.911340268233,
      "eccentricity": 0.0001521,
      "inclination_deg": 53.2195,
      "raan_deg": 36.8593,
      "arg_perigee_deg": 79.3555,
      "mean_anomaly_deg": 280.7608,
      "mean_motion_rev_day": 15.08829874
    },
    {
      "epoch": "2026-03-30T02:55:12.948096Z",
      "apogee_km": 540.6683448670474,
      "perigee_km": 538.7159951186914,
      "latitude_deg": 2.161066219627605e-05,
      "longitude_deg": 161.07280944303955,
      "height_km": 540.6270559301872,
      "semi_major_axis_km": 6917.8291699928695,
      "eccentricity": 0.00014111,
      "inclination_deg": 53.2184,
      "raan_deg": 32.3947,
      "arg_perigee_deg": 92.2979,
      "mean_anomaly_deg": 267.8175,
      "mean_motion_rev_day": 15.08856757
    },
    {
      "epoch": "2026-03-30T20:24:28.416960Z",
      "apogee_km": 540.5182049786354,
      "perigee_km": 538.975101850905,
      "latitude_deg": 3.9104520535627755e-05,
      "longitude_deg": -105.22672176197858,
      "height_km": 540.442623818406,
      "semi_major_axis_km": 6917.8836534147695,
      "eccentricity": 0.00011153,
      "inclination_deg": 53.218,
      "raan_deg": 29.1278,
      "arg_perigee_deg": 74.9622,
      "mean_anomaly_deg": 285.1494,
      "mean_motion_rev_day": 15.08838932
    }
  ]
}